{"type": "FeatureCollection", "features": [{"type": "Feature", "properties": {"norad_id": 66376, "name": "SHIYAN-32 01", "group": "last-30-days", "lat": 47.75987427611359, "lon": -34.52511874999234, "alt_km": 431.42431118707736, "timestamp": "2025-12-07T18:50:15.512481+00:00", "meta": {"OBJECT_NAME": "SHIYAN-32 01", "OBJECT_ID": "2025-255A", "EPOCH": "2025-12-07T05:54:56.047392", "MEAN_MOTION": 15.42517678, "ECCENTRICITY": 0.00135032, "INCLINATION": 52.9944, "RA_OF_ASC_NODE": 204.1987, "ARG_OF_PERICENTER": 24.874, "MEAN_ANOMALY": 335.2912, "EPHEMERIS_TYPE": 0, "CLASSIFICATION_TYPE": "U", "NORAD_CAT_ID": 66376, "ELEMENT_SET_NO": 999, "REV_AT_EPOCH": 450, "BSTAR": 0.00060953895, "MEAN_MOTION_DOT": 0.00026605, "MEAN_MOTION_DDOT": 0}, "tle": {"line1": "1 66376U 25255A   25341.24648203  .00026605  00000+0  60954-3 0  9996", "line2": "2 66376  52.9944 204.1987 0013503  24.8740 335.2912 15.42517678  4501"}}, "geometry": {"type": "Point", "coordinates": [-34.52511874999234, 47.75987427611359]}}, {"type": "Feature", "properties": {"norad_id": 66377, "name": "CZ-11 DEB", "group": "last-30-days", "lat": -15.630657460171465, "lon": 33.64673230708394, "alt_km": 446.21356909086717, "timestamp": "2025-12-07T18:50:15.512530+00:00", "meta": {"OBJECT_NAME": "CZ-11 DEB", "OBJECT_ID": "2025-255B", "EPOCH": "2025-12-07T02:26:30.879456", "MEAN_MOTION": 15.43972158, "ECCENTRICITY": 0.00137825, "INCLINATION": 52.9947, "RA_OF_ASC_NODE": 204.7184, "ARG_OF_PERICENTER": 21.899, "MEAN_ANOMALY": 338.2601, "EPHEMERIS_TYPE": 0, "CLASSIFICATION_TYPE": "U", "NORAD_CAT_ID": 66377, "ELEMENT_SET_NO": 999, "REV_AT_EPOCH": 434, "BSTAR": 0.0010815223, "MEAN_MOTION_DOT": 0.00050097, "MEAN_MOTION_DDOT": 0}, "tle": {"line1": "1 66377U 25255B   25341.10174629  .00050097  00000+0  10815-2 0  9990", "line2": "2 66377  52.9947 204.7184 0013782  21.8990 338.2601 15.43972158  4342"}}, "geometry": {"type": "Point", "coordinates": [33.64673230708394, -15.630657460171465]}}, {"type": "Feature", "properties": {"norad_id": 66378, "name": "SHIYAN-32 02", "group": "last-30-days", "lat": -42.44638043526091, "lon": 65.00999561725386, "alt_km": 443.16550693659065, "timestamp": "2025-12-07T18:50:15.512547+00:00", "meta": {"OBJECT_NAME": "SHIYAN-32 02", "OBJECT_ID": "2025-255C", "EPOCH": "2025-12-07T06:56:34.631808", "MEAN_MOTION": 15.44643909, "ECCENTRICITY": 0.00121214, "INCLINATION": 52.9924, "RA_OF_ASC_NODE": 203.7517, "ARG_OF_PERICENTER": 17.5458, "MEAN_ANOMALY": 342.5963, "EPHEMERIS_TYPE": 0, "CLASSIFICATION_TYPE": "U", "NORAD_CAT_ID": 66378, "ELEMENT_SET_NO": 999, "REV_AT_EPOCH": 437, "BSTAR": 0.0012030486, "MEAN_MOTION_DOT": 0.00057077, "MEAN_MOTION_DDOT": 0}, "tle": {"line1": "1 66378U 25255C   25341.28928972  .00057077  00000+0  12030-2 0  9994", "line2": "2 66378  52.9924 203.7517 0012121  17.5458 342.5963 15.44643909  4376"}}, "geometry": {"type": "Point", "coordinates": [65.00999561725386, -42.44638043526091]}}, {"type": "Feature", "properties": {"norad_id": 66379, "name": "SHIYAN-32 03", "group": "last-30-days", "lat": 24.339073154137886, "lon": 1.619889944078885, "alt_km": 440.39886814154124, "timestamp": "2025-12-07T18:50:15.512584+00:00", "meta": {"OBJECT_NAME": "SHIYAN-32 03", "OBJECT_ID": "2025-255D", "EPOCH": "2025-12-07T05:45:32.395392", "MEAN_MOTION": 15.4284205, "ECCENTRICITY": 0.0015558, "INCLINATION": 52.9952, "RA_OF_ASC_NODE": 204.1587, "ARG_OF_PERICENTER": 25.8354, "MEAN_ANOMALY": 334.3424, "EPHEMERIS_TYPE": 0, "CLASSIFICATION_TYPE": "U", "NORAD_CAT_ID": 66379, "ELEMENT_SET_NO": 999, "REV_AT_EPOCH": 438, "BSTAR": 0.00052078137, "MEAN_MOTION_DOT": 0.00022934, "MEAN_MOTION_DDOT": 0}, "tle": {"line1": "1 66379U 25255D   25341.23995828  .00022934  00000+0  52078-3 0  9995", "line2": "2 66379  52.9952 204.1587 0015558  25.8354 334.3424 15.42842050  4382"}}, "geometry": {"type": "Point", "coordinates": [1.619889944078885, 24.339073154137886]}}, {"type": "Feature", "properties": {"norad_id": 66380, "name": "STARLINK-35139", "group": "last-30-days", "lat": 33.366204666669994, "lon": -42.41283387326534, "alt_km": 442.04540887782605, "timestamp": "2025-12-07T18:50:15.512599+00:00", "meta": {"OBJECT_NAME": "STARLINK-35139", "OBJECT_ID": "2025-257A", "EPOCH": "2025-12-07T03:04:14.350368", "MEAN_MOTION": 15.39602299, "ECCENTRICITY": 0.00018974, "INCLINATION": 53.1598, "RA_OF_ASC_NODE": 291.0986, "ARG_OF_PERICENTER": 92.6937, "MEAN_ANOMALY": 267.4285, "EPHEMERIS_TYPE": 0, "CLASSIFICATION_TYPE": "U", "NORAD_CAT_ID": 66380, "ELEMENT_SET_NO": 999, "REV_AT_EPOCH": 544, "BSTAR": 0.0015986838, "MEAN_MOTION_DOT": 0.00064049, "MEAN_MOTION_DDOT": 0}, "tle": {"line1": "1 66380U 25257A   25341.12794387  .00064049  00000+0  15987-2 0  9994", "line2": "2 66380  53.1598 291.0986 0001897  92.6937 267.4285 15.39602299  5445"}}, "geometry": {"type": "Point", "coordinates": [-42.41283387326534, 33.366204666669994]}}, {"type": "Feature", "properties": {"norad_id": 66381, "name": "STARLINK-35158", "group": "last-30-days", "lat": 34.64553571543913, "lon": -40.799209674070646, "alt_km": 442.20142873075747, "timestamp": "2025-12-07T18:50:15.512617+00:00", "meta": {"OBJECT_NAME": "STARLINK-35158", "OBJECT_ID": "2025-257B", "EPOCH": "2025-12-07T03:03:45.835776", "MEAN_MOTION": 15.39624258, "ECCENTRICITY": 8.344e-05, "INCLINATION": 53.1597, "RA_OF_ASC_NODE": 291.0954, "ARG_OF_PERICENTER": 80.0024, "MEAN_ANOMALY": 280.1075, "EPHEMERIS_TYPE": 0, "CLASSIFICATION_TYPE": "U", "NORAD_CAT_ID": 66381, "ELEMENT_SET_NO": 999, "REV_AT_EPOCH": 550, "BSTAR": 0.0011196292, "MEAN_MOTION_DOT": 0.00044653, "MEAN_MOTION_DDOT": 0}, "tle": {"line1": "1 66381U 25257B   25341.12761384  .00044653  00000+0  11196-2 0  9993", "line2": "2 66381  53.1597 291.0954 0000834  80.0024 280.1075 15.39624258  5503"}}, "geometry": {"type": "Point", "coordinates": [-40.799209674070646, 34.64553571543913]}}, {"type": "Feature", "properties": {"norad_id": 66382, "name": "STARLINK-35639", "group": "last-30-days", "lat": 48.42778861660461, "lon": -14.355401495575808, "alt_km": 439.6129260012185, "timestamp": "2025-12-07T18:50:15.512629+00:00", "meta": {"OBJECT_NAME": "STARLINK-35639", "OBJECT_ID": "2025-257C", "EPOCH": "2025-12-07T06:04:29.932608", "MEAN_MOTION": 15.39594014, "ECCENTRICITY": 0.00014072, "INCLINATION": 53.1611, "RA_OF_ASC_NODE": 290.4558, "ARG_OF_PERICENTER": 57.4123, "MEAN_ANOMALY": 302.7018, "EPHEMERIS_TYPE": 0, "CLASSIFICATION_TYPE": "U", "NORAD_CAT_ID": 66382, "ELEMENT_SET_NO": 999, "REV_AT_EPOCH": 552, "BSTAR": 0.0020980816, "MEAN_MOTION_DOT": 0.00084384, "MEAN_MOTION_DDOT": 0}, "tle": {"line1": "1 66382U 25257C   25341.25312422  .00084384  00000+0  20981-2 0  9990", "line2": "2 66382  53.1611 290.4558 0001407  57.4123 302.7018 15.39594014  5525"}}, "geometry": {"type": "Point", "coordinates": [-14.355401495575808, 48.42778861660461]}}, {"type": "Feature", "properties": {"norad_id": 66383, "name": "STARLINK-35690", "group": "last-30-days", "lat": 52.846973948991526, "lon": 26.274296711135495, "alt_km": 439.2742315952446, "timestamp": "2025-12-07T18:50:15.512640+00:00", "meta": {"OBJECT_NAME": "STARLINK-35690", "OBJECT_ID": "2025-257D", "EPOCH": "2025-12-07T05:57:49.098816", "MEAN_MOTION": 15.39623743, "ECCENTRICITY": 8.668e-05, "INCLINATION": 53.1619, "RA_OF_ASC_NODE": 290.4252, "ARG_OF_PERICENTER": 100.8019, "MEAN_ANOMALY": 259.3083, "EPHEMERIS_TYPE": 0, "CLASSIFICATION_TYPE": "U", "NORAD_CAT_ID": 66383, "ELEMENT_SET_NO": 999, "REV_AT_EPOCH": 552, "BSTAR": 0.0020696904, "MEAN_MOTION_DOT": 0.00083306, "MEAN_MOTION_DDOT": 0}, "tle": {"line1": "1 66383U 25257D   25341.24848494  .00083306  00000+0  20697-2 0  9990", "line2": "2 66383  53.1619 290.4252 0000866 100.8019 259.3083 15.39623743  5521"}}, "geometry": {"type": "Point", "coordinates": [26.274296711135495, 52.846973948991526]}}, {"type": "Feature", "properties": {"norad_id": 66384, "name": "STARLINK-35662", "group": "last-30-days", "lat": 52.59577487471067, "lon": 29.246793085128534, "alt_km": 439.64222790381973, "timestamp": "2025-12-07T18:50:15.512651+00:00", "meta": {"OBJECT_NAME": "STARLINK-35662", "OBJECT_ID": "2025-257E", "EPOCH": "2025-12-07T05:57:20.157408", "MEAN_MOTION": 15.39618794, "ECCENTRICITY": 5.475e-05, "INCLINATION": 53.1601, "RA_OF_ASC_NODE": 290.4243, "ARG_OF_PERICENTER": 117.6802, "MEAN_ANOMALY": 242.4259, "EPHEMERIS_TYPE": 0, "CLASSIFICATION_TYPE": "U", "NORAD_CAT_ID": 66384, "ELEMENT_SET_NO": 999, "REV_AT_EPOCH": 552, "BSTAR": 0.0014219292, "MEAN_MOTION_DOT": 0.00056899, "MEAN_MOTION_DDOT": 0}, "tle": {"line1": "1 66384U 25257E   25341.24814997  .00056899  00000+0  14219-2 0  9992", "line2": "2 66384  53.1601 290.4243 0000547 117.6802 242.4259 15.39618794  5523"}}, "geometry": {"type": "Point", "coordinates": [29.246793085128534, 52.59577487471067]}}, {"type": "Feature", "properties": {"norad_id": 66385, "name": "STARLINK-35659", "group": "last-30-days", "lat": 49.211718313215705, "lon": -11.722604727879311, "alt_km": 439.9668065905662, "timestamp": "2025-12-07T18:50:15.512662+00:00", "meta": {"OBJECT_NAME": "STARLINK-35659", "OBJECT_ID": "2025-257F", "EPOCH": "2025-12-06T23:50:06.755136", "MEAN_MOTION": 15.39593436, "ECCENTRICITY": 0.00010478, "INCLINATION": 53.1604, "RA_OF_ASC_NODE": 291.6782, "ARG_OF_PERICENTER": 128.028, "MEAN_ANOMALY": 232.0819, "EPHEMERIS_TYPE": 0, "CLASSIFICATION_TYPE": "U", "NORAD_CAT_ID": 66385, "ELEMENT_SET_NO": 999, "REV_AT_EPOCH": 548, "BSTAR": 0.0020549824, "MEAN_MOTION_DOT": 0.00082621, "MEAN_MOTION_DDOT": 0}, "tle": {"line1": "1 66385U 25257F   25340.99313374  .00082621  00000+0  20550-2 0  9994", "line2": "2 66385  53.1604 291.6782 0001047 128.0280 232.0819 15.39593436  5487"}}, "geometry": {"type": "Point", "coordinates": [-11.722604727879311, 49.211718313215705]}}]}